{"type": "FeatureCollection", "features": [ {"type": "Feature", "properties": {"norad_id": 30928, "name": "FENGYUN 1C DEB", "group": "fengyun-1c-debris", "lat": 32.901247389821236, "lon": 82.34347542495053, "alt_km": 895.0774999553296, "timestamp": "2025-12-26T22:28:06.064061+00:00", "meta": {"OBJECT_NAME": "FENGYUN 1C DEB", "OBJECT_ID": "1999-025AZS", "EPOCH": "2025-12-26T11:42:50.156064", "MEAN_MOTION": 13.22258231, "ECCENTRICITY": 0.04498383, "INCLINATION": 98.8822, "RA_OF_ASC_NODE": 87.7674, "ARG_OF_PERICENTER": 358.1718, "MEAN_ANOMALY": 60.3705, "EPHEMERIS_TYPE": 0, "CLASSIFICATION_TYPE": "U", "NORAD_CAT_ID": 30928, "ELEMENT_SET_NO": 999, "REV_AT_EPOCH": 90530, "BSTAR": 0.0012102877, "MEAN_MOTION_DOT": 8.24e-06, "MEAN_MOTION_DDOT": 0}, "tle": {"line1": "1 30928U 99025AZS 25360.48808051  .00000824  00000+0  12103-2 0  9999", "line2": "2 30928  98.8822  87.7674 0449838 358.1718  60.3705 13.22258231905306"}}, "geometry": {"type": "Point", "coordinates": [82.34347542495053, 32.901247389821236]}}, {"type": "Feature", "properties": {"norad_id": 30930, "name": "FENGYUN 1C DEB", "group": "fengyun-1c-debris", "lat": -70.4889807412853, "lon": 52.65475841888464, "alt_km": 830.532734451659, "timestamp": "2025-12-26T22:28:06.064072+00:00", "meta": {"OBJECT_NAME": "FENGYUN 1C DEB", "OBJECT_ID": "1999-025AZU", "EPOCH": "2025-12-26T01:20:20.657760", "MEAN_MOTION": 14.37418558, "ECCENTRICITY": 0.01096221, "INCLINATION": 98.2142, "RA_OF_ASC_NODE": 27.7556, "ARG_OF_PERICENTER": 66.7393, "MEAN_ANOMALY": 348.8311, "EPHEMERIS_TYPE": 0, "CLASSIFICATION_TYPE": "U", "NORAD_CAT_ID": 30930, "ELEMENT_SET_NO": 999, "REV_AT_EPOCH": 98523, "BSTAR": 0.00033220225, "MEAN_MOTION_DOT": 1.022e-05, "MEAN_MOTION_DDOT": 0}, "tle": {"line1": "1 30930U 99025AZU 25360.05579465  .00001022  00000+0  33220-3 0  9994", "line2": "2 30930  98.2142  27.7556 0109622  66.7393 348.8311 14.37418558985230"}}, "geometry": {"type": "Point", "coordinates": [52.65475841888464, -70.4889807412853]}}, {"type": "Feature", "properties": {"norad_id": 30931, "name": "FENGYUN 1C DEB", "group": "fengyun-1c-debris", "lat": 80.1730756966694, "lon": -52.625415417264776, "alt_km": 881.8640080031973, "timestamp": "2025-12-26T22:28:06.064083+00:00", "meta": {"OBJECT_NAME": "FENGYUN 1C DEB", "OBJECT_ID": "1999-025AZV", "EPOCH": "2025-12-26T15:53:54.312288", "MEAN_MOTION": 14.01537403, "ECCENTRICITY": 0.00925609, "INCLINATION": 99.1701, "RA_OF_ASC_NODE": 58.2641, "ARG_OF_PERICENTER": 3.0479, "MEAN_ANOMALY": 148.9715, "EPHEMERIS_TYPE": 0, "CLASSIFICATION_TYPE": "U", "NORAD_CAT_ID": 30931, "ELEMENT_SET_NO": 999, "REV_AT_EPOCH": 96120, "BSTAR": 0.00056460021, "MEAN_MOTION_DOT": 8.41e-06, "MEAN_MOTION_DDOT": 0}, "tle": {"line1": "1 30931U 99025AZV 25360.66243417  .00000841  00000+0  56460-3 0  9996", "line2": "2 30931  99.1701  58.2641 0092560   3.0479 148.9715 14.01537403961207"}}, "geometry": {"type": "Point", "coordinates": [-52.625415417264776, 80.1730756966694]}}, {"type": "Feature", "properties": {"norad_id": 30932, "name": "FENGYUN 1C DEB", "group": "fengyun-1c-debris", "lat": -55.084981994009844, "lon": 101.1099324238127, "alt_km": 770.2645834096684, "timestamp": "2025-12-26T22:28:06.064093+00:00", "meta": {"OBJECT_NAME": "FENGYUN 1C DEB", "OBJECT_ID": "1999-025AZW", "EPOCH": "2025-12-26T06:12:58.933152", "MEAN_MOTION": 14.26972307, "ECCENTRICITY": 0.00560884, "INCLINATION": 98.9094, "RA_OF_ASC_NODE": 293.4078, "ARG_OF_PERICENTER": 254.8173, "MEAN_ANOMALY": 104.6799, "EPHEMERIS_TYPE": 0, "CLASSIFICATION_TYPE": "U", "NORAD_CAT_ID": 30932, "ELEMENT_SET_NO": 999, "REV_AT_EPOCH": 96587, "BSTAR": 0.002611541, "MEAN_MOTION_DOT": 6.416e-05, "MEAN_MOTION_DDOT": 0}, "tle": {"line1": "1 30932U 99025AZW 25360.25901543  .00006416  00000+0  26115-2 0  9990", "line2": "2 30932  98.9094 293.4078 0056088 254.8173 104.6799 14.26972307965870"}}, "geometry": {"type": "Point", "coordinates": [101.1099324238127, -55.084981994009844]}}, {"type": "Feature", "properties": {"norad_id": 30933, "name": "FENGYUN 1C DEB", "group": "fengyun-1c-debris", "lat": -80.11455612197535, "lon": 50.27132687868131, "alt_km": 722.8809460321563, "timestamp": "2025-12-26T22:28:06.064104+00:00", "meta": {"OBJECT_NAME": "FENGYUN 1C DEB", "OBJECT_ID": "1999-025AZX", "EPOCH": "2025-12-26T10:12:53.897184", "MEAN_MOTION": 14.36868474, "ECCENTRICITY": 0.00751641, "INCLINATION": 99.0486, "RA_OF_ASC_NODE": 343.6076, "ARG_OF_PERICENTER": 283.1636, "MEAN_ANOMALY": 231.4526, "EPHEMERIS_TYPE": 0, "CLASSIFICATION_TYPE": "U", "NORAD_CAT_ID": 30933, "ELEMENT_SET_NO": 999, "REV_AT_EPOCH": 96068, "BSTAR": 0.0047774021, "MEAN_MOTION_DOT": 0.00014571, "MEAN_MOTION_DDOT": 0}, "tle": {"line1": "1 30933U 99025AZX 25360.42562381  .00014571  00000+0  47774-2 0  9998", "line2": "2 30933  99.0486 343.6076 0075164 283.1636 231.4526 14.36868474960680"}}, "geometry": {"type": "Point", "coordinates": [50.27132687868131, -80.11455612197535]}}, {"type": "Feature", "properties": {"norad_id": 30934, "name": "FENGYUN 1C DEB", "group": "fengyun-1c-debris", "lat": -58.74473108548479, "lon": -109.0792442457569, "alt_km": 1149.830708083895, "timestamp": "2025-12-26T22:28:06.064114+00:00", "meta": {"OBJECT_NAME": "FENGYUN 1C DEB", "OBJECT_ID": "1999-025AZY", "EPOCH": "2025-12-26T06:42:49.500576", "MEAN_MOTION": 13.46792195, "ECCENTRICITY": 0.03413956, "INCLINATION": 98.7654, "RA_OF_ASC_NODE": 235.6189, "ARG_OF_PERICENTER": 47.0677, "MEAN_ANOMALY": 315.8571, "EPHEMERIS_TYPE": 0, "CLASSIFICATION_TYPE": "U", "NORAD_CAT_ID": 30934, "ELEMENT_SET_NO": 999, "REV_AT_EPOCH": 91890, "BSTAR": 0.0022202719, "MEAN_MOTION_DOT": 1.88e-05, "MEAN_MOTION_DDOT": 0}, "tle": {"line1": "1 30934U 99025AZY 25360.27973959  .00001880  00000+0  22203-2 0  9998", "line2": "2 30934  98.7654 235.6189 0341395  47.0677 315.8571 13.46792195918904"}}, "geometry": {"type": "Point", "coordinates": [-109.0792442457569, -58.74473108548479]}}, {"type": "Feature", "properties": {"norad_id": 30936, "name": "FENGYUN 1C DEB", "group": "fengyun-1c-debris", "lat": -70.80743968131523, "lon": 57.09070850476229, "alt_km": 795.1061221824821, "timestamp": "2025-12-26T22:28:06.064125+00:00", "meta": {"OBJECT_NAME": "FENGYUN 1C DEB", "OBJECT_ID": "1999-025BAA", "EPOCH": "2025-12-25T22:04:31.178784", "MEAN_MOTION": 14.23402013, "ECCENTRICITY": 0.0046149, "INCLINATION": 98.5806, "RA_OF_ASC_NODE": 30.3937, "ARG_OF_PERICENTER": 251.6756, "MEAN_ANOMALY": 230.0536, "EPHEMERIS_TYPE": 0, "CLASSIFICATION_TYPE": "U", "NORAD_CAT_ID": 30936, "ELEMENT_SET_NO": 999, "REV_AT_EPOCH": 97320, "BSTAR": 0.00046152, "MEAN_MOTION_DOT": 1.016e-05, "MEAN_MOTION_DDOT": 0}, "tle": {"line1": "1 30936U 99025BAA 25359.91980531  .00001016  00000+0  46152-3 0  9994", "line2": "2 30936  98.5806  30.3937 0046149 251.6756 230.0536 14.23402013973200"}}, "geometry": {"type": "Point", "coordinates": [57.09070850476229, -70.80743968131523]}}, {"type": "Feature", "properties": {"norad_id": 30937, "name": "FENGYUN 1C DEB", "group": "fengyun-1c-debris", "lat": 39.27098404037254, "lon": -119.38269183851656, "alt_km": 937.509431161915, "timestamp": "2025-12-26T22:28:06.064147+00:00", "meta": {"OBJECT_NAME": "FENGYUN 1C DEB", "OBJECT_ID": "1999-025BAB", "EPOCH": "2025-12-26T15:42:26.609760", "MEAN_MOTION": 13.95588421, "ECCENTRICITY": 0.00751648, "INCLINATION": 99.0869, "RA_OF_ASC_NODE": 52.8206, "ARG_OF_PERICENTER": 15.4023, "MEAN_ANOMALY": 149.3836, "EPHEMERIS_TYPE": 0, "CLASSIFICATION_TYPE": "U", "NORAD_CAT_ID": 30937, "ELEMENT_SET_NO": 999, "REV_AT_EPOCH": 95910, "BSTAR": -2.2790554e-05, "MEAN_MOTION_DOT": -7.6e-07, "MEAN_MOTION_DDOT": 0}, "tle": {"line1": "1 30937U 99025BAB 25360.65447465 -.00000076  00000+0 -22791-4 0  9993", "line2": "2 30937  99.0869  52.8206 0075164  15.4023 149.3836 13.95588421959100"}}, "geometry": {"type": "Point", "coordinates": [-119.38269183851656, 39.27098404037254]}}, {"type": "Feature", "properties": {"norad_id": 30938, "name": "FENGYUN 1C DEB", "group": "fengyun-1c-debris", "lat": 18.443880287618047, "lon": 11.120347591376964, "alt_km": 818.4003327758055, "timestamp": "2025-12-26T22:28:06.064158+00:00", "meta": {"OBJECT_NAME": "FENGYUN 1C DEB", "OBJECT_ID": "1999-025BAC", "EPOCH": "2025-12-26T14:31:29.275680", "MEAN_MOTION": 14.19839724, "ECCENTRICITY": 0.0045377, "INCLINATION": 98.5903, "RA_OF_ASC_NODE": 13.6888, "ARG_OF_PERICENTER": 303.1631, "MEAN_ANOMALY": 184.2711, "EPHEMERIS_TYPE": 0, "CLASSIFICATION_TYPE": "U", "NORAD_CAT_ID": 30938, "ELEMENT_SET_NO": 999, "REV_AT_EPOCH": 97316, "BSTAR": 0.00035614257, "MEAN_MOTION_DOT": 7.2e-06, "MEAN_MOTION_DDOT": 0}, "tle": {"line1": "1 30938U 99025BAC 25360.60519995  .00000720  00000+0  35614-3 0  9998", "line2": "2 30938  98.5903  13.6888 0045377 303.1631 184.2711 14.19839724973164"}}, "geometry": {"type": "Point", "coordinates": [11.120347591376964, 18.443880287618047]}}, {"type": "Feature", "properties": {"norad_id": 30940, "name": "FENGYUN 1C DEB", "group": "fengyun-1c-debris", "lat": 73.36823557524801, "lon": -29.87430347164963, "alt_km": 869.1568604481809, "timestamp": "2025-12-26T22:28:06.064169+00:00", "meta": {"OBJECT_NAME": "FENGYUN 1C DEB", "OBJECT_ID": "1999-025BAE", "EPOCH": "2025-12-22T05:52:00.054912", "MEAN_MOTION": 14.08319135, "ECCENTRICITY": 0.00407229, "INCLINATION": 98.6214, "RA_OF_ASC_NODE": 356.1653, "ARG_OF_PERICENTER": 336.7041, "MEAN_ANOMALY": 84.9821, "EPHEMERIS_TYPE": 0, "CLASSIFICATION_TYPE": "U", "NORAD_CAT_ID": 30940, "ELEMENT_SET_NO": 999, "REV_AT_EPOCH": 96266, "BSTAR": 0.00045494688, "MEAN_MOTION_DOT": 7.42e-06, "MEAN_MOTION_DDOT": 0}, "tle": {"line1": "1 30940U 99025BAE 25356.24444508  .00000742  00000+0  45495-3 0  9995", "line2": "2 30940  98.6214 356.1653 0040722 336.7041  84.9821 14.08319135962662"}}, "geometry": {"type": "Point", "coordinates": [-29.87430347164963, 73.36823557524801]}}]}